{"spkid": "20354182", "covariance": {"elements": [{"label": "e", "title": "eccentricity", "value": ".2381977162395996", "units": null, "sigma": 3.76438632324699e-08, "name": "e"}, {"label": "q", "name": "q", "sigma": 4.29548540156354e-08, "value": ".8725032056628386", "title": "perihelion distance", "units": "au"}, {"label": "tp", "sigma": 1.96063285517137e-05, "name": "tp", "title": "time of perihelion passage", "value": "2459130.059666489212", "units": "TDB"}, {"units": "deg", "title": "longitude of the ascending node", "value": ".6798799597744098", "name": "om", "sigma": 1.25970247754478e-05, "label": "node"}, {"label": "peri", "name": "w", "sigma": 1.92135074405498e-05, "units": "deg", "value": "245.5484711443956", "title": "argument of perihelion"}, {"units": "deg", "value": "8.700757348565665", "title": "inclination", "sigma": 4.03440741705151e-06, "name": "i", "label": "i"}], "data": [["1.417060439064896E-15", "-1.615438794667471E-15", "4.039529219067642E-13", "-9.077611083949886E-14", "2.757987172494477E-13", "2.939273209342596E-15", "-6.659248868298789E-23"], ["-1.615438794667471E-15", "1.845119483504546E-15", "-4.82458716193438E-13", "1.062546666346593E-13", "-3.272067013844282E-13", "-3.146221288976811E-15", "8.99156168281435E-23"], ["4.039529219067642E-13", "-4.82458716193438E-13", "3.844081192777449E-10", "-6.815622393720463E-11", "2.86622369704173E-10", "-4.570891911590573E-12", "-1.066876700709719E-19"], ["-9.077611083949886E-14", "1.062546666346593E-13", "-6.815622393720463E-11", "1.58685033193245E-10", "-1.959345570404699E-10", "-1.527822097928333E-11", "1.616429326251812E-20"], ["2.757987172494477E-13", "-3.272067013844282E-13", "2.86622369704173E-10", "-1.959345570404699E-10", "3.69158868168063E-10", "1.176160931875261E-11", "-6.322680039288007E-20"], ["2.939273209342596E-15", "-3.146221288976811E-15", "-4.570891911590573E-12", "-1.527822097928333E-11", "1.176160931875261E-11", "1.627644320676023E-11", "1.553696406693283E-21"], ["-6.659248868298789E-23", "8.99156168281435E-23", "-1.066876700709719E-19", "1.616429326251812E-20", "-6.322680039288007E-20", "1.553696406693283E-21", "6.788002909617666E-29"]], "labels": ["e", "q", "tp", "node", "peri", "i", "A2"], "epoch": "2459171.5"}, "elements": [{"sigma": "3.7617E-8", "name": "e", "value": ".2381824400007021", "title": "eccentricity", "units": null, "label": "e"}, {"value": "1.14545401504176", "title": "semi-major axis", "units": "au", "name": "a", "sigma": "4.1735E-9", "label": "a"}, {"label": "q", "name": "q", "sigma": "4.3294E-8", "units": "au", "value": ".8726269828305128", "title": "perihelion distance"}, {"title": "inclination; angle with respect to x-y ecliptic plane", "value": "8.707826512681986", "units": "deg", "sigma": "4.0302E-6", "name": "i", "label": "i"}, {"name": "om", "sigma": "1.2585E-5", "units": "deg", "value": ".5990335961756049", "title": "longitude of the ascending node", "label": "node"}, {"units": "deg", "title": "argument of perihelion", "value": "245.6234923767716", "name": "w", "sigma": "1.9233E-5", "label": "peri"}, {"label": "M", "name": "ma", "sigma": "1.3102E-5", "units": "deg", "title": "mean anomaly", "value": "224.7576744279722"}, {"label": "tp", "name": "tp", "sigma": "1.6184E-5", "value": "2461368.718999058611", "title": "time of perihelion passage", "units": "TDB"}, {"title": "sidereal orbital period", "value": "447.7802300792845", "units": "d", "name": "per", "sigma": "2.4472E-6", "label": "period"}, {"name": "n", "sigma": "4.3939E-9", "title": "mean motion", "value": ".8039658203227461", "units": "deg/d", "label": "n"}, {"label": "Q", "value": "1.418281047253007", "title": "aphelion distance", "units": "au", "name": "ad", "sigma": "5.1675E-9"}], "epoch": "2461200.5"}